OBJECT_NAME,OBJECT_ID,EPOCH,MEAN_MOTION,ECCENTRICITY,INCLINATION,RA_OF_ASC_NODE,ARG_OF_PERICENTER,MEAN_ANOMALY,EPHEMERIS_TYPE,CLASSIFICATION_TYPE,NORAD_CAT_ID,ELEMENT_SET_NO,REV_AT_EPOCH,BSTAR,MEAN_MOTION_DOT,MEAN_MOTION_DDOT
STARLINK-37662,2026-110P,2026-06-11T14:00:01.999872,15.49206169,.00017368,97.2841,358.9707,60.4355,285.9506,0,U,69137,999,475,.19545525E-3,.10561E-3,0
STARLINK-37658,2026-110Q,2026-06-11T14:00:01.999872,15.49173488,.00010251,97.2842,358.8959,101.1475,68.6999,0,U,69138,999,475,.48663214E-3,.2645E-3,0
STARLINK-37659,2026-110R,2026-06-11T14:00:01.999872,15.49177395,.00015666,97.2846,358.8779,80.0232,46.9372,0,U,69139,999,475,.4974691E-3,.27048E-3,0
STARLINK-37653,2026-110S,2026-06-11T13:30:49.059648,15.49198448,.0001016,97.2851,358.8512,88.2035,271.9332,0,U,69140,999,473,.85423319E-3,.4666E-3,0
STARLINK-37654,2026-110T,2026-06-11T14:00:01.999872,15.49183134,.00014869,97.2840,358.9749,82.2354,273.7924,0,U,69141,999,475,.38792148E-3,.2106E-3,0
STARLINK-37655,2026-110U,2026-06-11T14:00:01.999872,15.49100838,.00010633,97.2842,359.0221,61.7328,45.7268,0,U,69142,999,475,.69313771E-3,.37671E-3,0
STARLINK-37636,2026-110V,2026-06-11T14:00:01.999872,15.53100056,.0001926,97.2840,359.0933,91.3504,174.4080,0,U,69143,999,475,-.46165015E-1,-.2555995E-1,0
STARLINK-37638,2026-110W,2026-06-11T14:00:01.999872,15.53399455,.00018702,97.2846,359.0987,95.1232,183.3073,0,U,69144,999,475,-.45983516E-1,-.2571748E-1,0
STARLINK-37657,2026-110X,2026-06-11T14:00:01.999872,15.49212650,.00020078,97.2842,358.9758,81.5418,273.2231,0,U,69145,999,480,.65552897E-3,.35755E-3,0
STARLINK-37639,2026-110Y,2026-06-11T14:00:01.999872,15.54189404,.00017505,97.2838,359.1065,94.5072,202.0739,0,U,69146,999,480,-.44344657E-1,-.2554789E-1,0
STARLINK-37661,2026-110Z,2026-06-11T14:00:01.999872,15.49159463,.00017334,97.2847,358.9236,89.3586,146.0321,0,U,69147,999,480,.38612816E-3,.20944E-3,0
STARLINK-37395,2026-111A,2026-06-11T13:56:11.614272,15.80899022,.0001872,53.1579,179.7589,86.8594,273.2643,0,U,69148,999,337,.1276399E-2,.259241E-2,0
STARLINK-37346,2026-111B,2026-06-11T14:00:01.999872,15.68482243,.00009128,53.1592,179.8515,72.8602,250.3436,0,U,69149,999,464,-.25441705E-1,-.2551979E-1,0
STARLINK-37332,2026-111C,2026-06-11T14:00:01.999872,15.59820021,.00014558,53.1588,180.0096,83.1136,162.3570,0,U,69150,999,464,-.35025143E-1,-.2492902E-1,0
STARLINK-37297,2026-111D,2026-06-11T13:54:22.345920,15.80992746,.00011331,53.1578,179.7507,74.0387,286.0760,0,U,69151,999,337,.16074962E-2,.330851E-2,0
STARLINK-37317,2026-111E,2026-06-11T10:49:26.987520,15.80935647,.0001282,53.1577,180.3711,114.2040,245.9117,0,U,69152,999,335,.93962195E-3,.189422E-2,0
STARLINK-37374,2026-111F,2026-06-11T14:00:01.999872,15.55015701,.00014907,53.1587,180.1366,72.7616,110.1832,0,U,69153,999,464,-.41481194E-1,-.2465228E-1,0
STARLINK-37235,2026-111G,2026-06-11T14:00:01.999872,15.51939323,.00012812,53.1592,180.3615,63.1474,8.9398,0,U,69154,999,464,-.49698859E-1,-.2669978E-1,0
STARLINK-37329,2026-111H,2026-06-11T07:48:01.600992,15.80939935,.00009965,53.1579,181.0081,106.1909,253.9223,0,U,69155,999,333,.87569523E-3,.17625E-2,0
STARLINK-37345,2026-111J,2026-06-11T12:19:02.856000,15.80947339,.00016031,53.1588,180.0459,132.5330,227.5829,0,U,69156,999,336,.99487038E-3,.200982E-2,0
STARLINK-37353,2026-111K,2026-06-11T13:49:46.550208,15.80945603,.00010864,53.1579,179.7292,102.2179,257.8966,0,U,69157,999,337,.10353463E-2,.209375E-2,0
STARLINK-37363,2026-111L,2026-06-11T12:15:44.993088,15.80960877,.00009815,53.1579,180.0312,85.5288,274.5847,0,U,69158,999,336,.11892686E-2,.241689E-2,0
STARLINK-37343,2026-111M,2026-06-11T14:00:01.999872,15.55027716,.00014152,53.1588,180.1375,74.0115,108.0762,0,U,69159,999,464,-.41414366E-1,-.2462672E-1,0
STARLINK-37328,2026-111N,2026-06-11T12:15:34.034112,15.80942285,.00011903,53.1578,180.0293,114.8575,245.2572,0,U,69160,999,336,.83311323E-3,.167492E-2,0
STARLINK-37311,2026-111P,2026-06-11T13:57:51.363072,15.78089630,.0001226,53.1584,179.7659,73.0761,287.0395,0,U,69161,999,337,.60147015E-3,.105222E-2,0
STARLINK-36286,2026-111Q,2026-06-11T13:56:36.289248,15.78113535,.00009981,53.1582,179.7580,117.3718,242.7405,0,U,69162,999,337,.83255646E-3,.14678E-2,0
STARLINK-37196,2026-111R,2026-06-11T12:29:20.617728,15.78116980,.000113,53.1585,180.0938,103.6068,256.5079,0,U,69163,999,336,.10842802E-2,.192426E-2,0
STARLINK-36288,2026-111S,2026-06-11T12:28:10.525728,15.78131207,.00009152,53.1583,180.0882,106.6252,253.4870,0,U,69164,999,336,.1172412E-2,.208655E-2,0
STARLINK-37445,2026-111T,2026-06-11T12:23:39.276384,15.78106147,.00011867,53.1584,180.0671,78.5702,281.5453,0,U,69165,999,336,.90774997E-3,.1603E-2,0
STARLINK-37491,2026-111U,2026-06-11T12:27:02.055456,15.78119853,.00010598,53.1581,180.0830,101.3660,258.7481,0,U,69166,999,336,.99151651E-3,.175578E-2,0
