STARLINK-37662          
1 69137U 26110P   26162.58335648  .00010561  00000+0  19546-3 0  9995
2 69137  97.2841 358.9707 0001736  60.4355 285.9506 15.49206169  4752
STARLINK-37658          
1 69138U 26110Q   26162.58335648  .00026450  00000+0  48663-3 0  9992
2 69138  97.2842 358.8959 0001025 101.1475  68.6999 15.49173488  4758
STARLINK-37659          
1 69139U 26110R   26162.58335648  .00027048  00000+0  49747-3 0  9991
2 69139  97.2846 358.8779 0001566  80.0232  46.9372 15.49177395  4754
STARLINK-37653          
1 69140U 26110S   26162.56306782  .00046660  00000+0  85423-3 0  9990
2 69140  97.2851 358.8512 0001016  88.2035 271.9332 15.49198448  4734
STARLINK-37654          
1 69141U 26110T   26162.58335648  .00021060  00000+0  38792-3 0  9990
2 69141  97.2840 358.9749 0001486  82.2354 273.7924 15.49183134  4750
STARLINK-37655          
1 69142U 26110U   26162.58335648  .00037671  00000+0  69314-3 0  9990
2 69142  97.2842 359.0221 0001063  61.7328  45.7268 15.49100838  4752
STARLINK-37636          
1 69143U 26110V   26162.58335648 -.02555995  00000+0 -46165-1 0  9996
2 69143  97.2840 359.0933 0001926  91.3504 174.4080 15.53100056  4753
STARLINK-37638          
1 69144U 26110W   26162.58335648 -.02571748  00000+0 -45984-1 0  9999
2 69144  97.2846 359.0987 0001870  95.1232 183.3073 15.53399455  4751
STARLINK-37657          
1 69145U 26110X   26162.58335648  .00035755  00000+0  65553-3 0  9995
2 69145  97.2842 358.9758 0002007  81.5418 273.2231 15.49212650  4807
STARLINK-37639          
1 69146U 26110Y   26162.58335648 -.02554789  00000+0 -44345-1 0  9997
2 69146  97.2838 359.1065 0001750  94.5072 202.0739 15.54189404  4800
STARLINK-37661          
1 69147U 26110Z   26162.58335648  .00020944  00000+0  38613-3 0  9998
2 69147  97.2847 358.9236 0001733  89.3586 146.0321 15.49159463  4801
STARLINK-37395          
1 69148U 26111A   26162.58068998  .00259241  00000+0  12764-2 0  9993
2 69148  53.1579 179.7589 0001872  86.8594 273.2643 15.80899022  3378
STARLINK-37346          
1 69149U 26111B   26162.58335648 -.02551979  00000+0 -25442-1 0  9996
2 69149  53.1592 179.8515 0000912  72.8602 250.3436 15.68482243  4649
STARLINK-37332          
1 69150U 26111C   26162.58335648 -.02492902  00000+0 -35025-1 0  9996
2 69150  53.1588 180.0096 0001455  83.1136 162.3570 15.59820021  4645
STARLINK-37297          
1 69151U 26111D   26162.57942530  .00330851  00000+0  16075-2 0  9995
2 69151  53.1578 179.7507 0001133  74.0387 286.0760 15.80992746  3379
STARLINK-37317          
1 69152U 26111E   26162.45100680  .00189422  00000+0  93962-3 0  9992
2 69152  53.1577 180.3711 0001282 114.2040 245.9117 15.80935647  3357
STARLINK-37374          
1 69153U 26111F   26162.58335648 -.02465228  00000+0 -41481-1 0  9993
2 69153  53.1587 180.1366 0001490  72.7616 110.1832 15.55015701  4643
STARLINK-37235          
1 69154U 26111G   26162.58335648 -.02669978  00000+0 -49699-1 0  9991
2 69154  53.1592 180.3615 0001281  63.1474   8.9398 15.51939323  4645
STARLINK-37329          
1 69155U 26111H   26162.32501853  .00176250  00000+0  87570-3 0  9991
2 69155  53.1579 181.0081 0000996 106.1909 253.9223 15.80939935  3334
STARLINK-37345          
1 69156U 26111J   26162.51322750  .00200982  00000+0  99487-3 0  9990
2 69156  53.1588 180.0459 0001603 132.5330 227.5829 15.80947339  3369
STARLINK-37353          
1 69157U 26111K   26162.57623322  .00209375  00000+0  10353-2 0  9995
2 69157  53.1579 179.7292 0001086 102.2179 257.8966 15.80945603  3371
STARLINK-37363          
1 69158U 26111L   26162.51093742  .00241689  00000+0  11893-2 0  9991
2 69158  53.1579 180.0312 0000981  85.5288 274.5847 15.80960877  3360
STARLINK-37343          
1 69159U 26111M   26162.58335648 -.02462672  00000+0 -41414-1 0  9995
2 69159  53.1588 180.1375 0001415  74.0115 108.0762 15.55027716  4643
STARLINK-37328          
1 69160U 26111N   26162.51081058  .00167492  00000+0  83311-3 0  9995
2 69160  53.1578 180.0293 0001190 114.8575 245.2572 15.80942285  3361
STARLINK-37311          
1 69161U 26111P   26162.58184448  .00105222  00000+0  60147-3 0  9995
2 69161  53.1584 179.7659 0001226  73.0761 287.0395 15.78089630  3374
STARLINK-36286          
1 69162U 26111Q   26162.58097557  .00146780  00000+0  83256-3 0  9990
2 69162  53.1582 179.7580 0000998 117.3718 242.7405 15.78113535  3377
STARLINK-37196          
1 69163U 26111R   26162.52037752  .00192426  00000+0  10843-2 0  9995
2 69163  53.1585 180.0938 0001130 103.6068 256.5079 15.78116980  3364
STARLINK-36288          
1 69164U 26111S   26162.51956627  .00208655  00000+0  11724-2 0  9997
2 69164  53.1583 180.0882 0000915 106.6252 253.4870 15.78131207  3363
STARLINK-37445          
1 69165U 26111T   26162.51642681  .00160300  00000+0  90775-3 0  9998
2 69165  53.1584 180.0671 0001186  78.5702 281.5453 15.78106147  3363
STARLINK-37491          
1 69166U 26111U   26162.51877379  .00175578  00000+0  99152-3 0  9994
2 69166  53.1581 180.0830 0001059 101.3660 258.7481 15.78119853  3360
